start=new Date('2023-02-04T00:00:00.000Z').valueOf();
sats=[{"NORAD_CAT_ID":"53826","TIME_SYSTEM":"UTC","ECCENTRICITY":"0.00011700","OBJECT_TYPE":"PAYLOAD","OBJECT_ID":"2022-114J","INCLINATION":"53.2185","BSTAR":"0.00037630000000","REV_AT_EPOCH":"2217","LAUNCH_DATE":"2022-09-19","ARG_OF_PERICENTER":"93.9781","COUNTRY_CODE":"US","EPOCH":"2023-02-03T05:54:51.521760","MEAN_ELEMENT_THEORY":"SGP4","GP_ID":"224315454","SITE":"AFETR","PERIAPSIS":"538.887","CENTER_NAME":"EARTH","MEAN_MOTION":"15.08856164","MEAN_MOTION_DDOT":"0.0000000000000","APOAPSIS":"540.505","OBJECT_NAME":"STARLINK-4756","EPHEMERIS_TYPE":"0","TLE_LINE1":"1 53826U 22114J   23034.24642965  .00005709  00000-0  37630-3 0  9997","REF_FRAME":"TEME","RA_OF_ASC_NODE":"338.8185","PERIOD":"95.437","TLE_LINE2":"2 53826  53.2185 338.8185 0001170  93.9781 266.1345 15.08856164 22175","SEMIMAJOR_AXIS":"6917.831","RCS_SIZE":"LARGE","MEAN_MOTION_DOT":"0.00005709","ELEMENT_SET_NO":"999","FILE":"3770323","CLASSIFICATION_TYPE":"U","MEAN_ANOMALY":"266.1345","DECAY_DATE":null},{"MEAN_MOTION_DDOT":"0.0000000000000","MEAN_MOTION":"15.08831281","PERIAPSIS":"538.874","CENTER_NAME":"EARTH","EPOCH":"2023-02-03T15:43:06.161952","SITE":"AFETR","GP_ID":"224350708","MEAN_ELEMENT_THEORY":"SGP4","COUNTRY_CODE":"US","ARG_OF_PERICENTER":"92.2852","LAUNCH_DATE":"2022-09-19","REV_AT_EPOCH":"2223","INCLINATION":"53.2196","BSTAR":"0.00004208600000","OBJECT_ID":"2022-114K","OBJECT_TYPE":"PAYLOAD","ECCENTRICITY":"0.00012980","TIME_SYSTEM":"UTC","NORAD_CAT_ID":"53827","DECAY_DATE":null,"MEAN_ANOMALY":"267.8289","CLASSIFICATION_TYPE":"U","ELEMENT_SET_NO":"999","FILE":"3770748","RCS_SIZE":"LARGE","MEAN_MOTION_DOT":"0.00000382","TLE_LINE2":"2 53827  53.2196 337.1024 0001298  92.2852 267.8289 15.08831281 22239","SEMIMAJOR_AXIS":"6917.907","PERIOD":"95.438","RA_OF_ASC_NODE":"337.1024","REF_FRAME":"TEME","EPHEMERIS_TYPE":"0","TLE_LINE1":"1 53827U 22114K   23034.65493243  .00000382  00000-0  42086-4 0  9990","OBJECT_NAME":"STARLINK-4764","APOAPSIS":"540.670"},{"FILE":"3770323","ELEMENT_SET_NO":"999","SEMIMAJOR_AXIS":"6917.837","TLE_LINE2":"2 53828  53.2181 338.7969 0001583  82.2630 277.8542 15.08854276 22174","MEAN_MOTION_DOT":"0.00008025","RCS_SIZE":"LARGE","DECAY_DATE":null,"CLASSIFICATION_TYPE":"U","MEAN_ANOMALY":"277.8542","TLE_LINE1":"1 53828U 22114L   23034.24275097  .00008025  00000-0  52155-3 0  9990","EPHEMERIS_TYPE":"0","REF_FRAME":"TEME","APOAPSIS":"540.797","OBJECT_NAME":"STARLINK-4760","PERIOD":"95.437","RA_OF_ASC_NODE":"338.7969","MEAN_ELEMENT_THEORY":"SGP4","GP_ID":"224314454","SITE":"AFETR","EPOCH":"2023-02-03T05:49:33.683808","COUNTRY_CODE":"US","MEAN_MOTION":"15.08854276","MEAN_MOTION_DDOT":"0.0000000000000","CENTER_NAME":"EARTH","PERIAPSIS":"538.607","ECCENTRICITY":"0.00015830","NORAD_CAT_ID":"53828","TIME_SYSTEM":"UTC","REV_AT_EPOCH":"2217","ARG_OF_PERICENTER":"82.2630","LAUNCH_DATE":"2022-09-19","OBJECT_ID":"2022-114L","OBJECT_TYPE":"PAYLOAD","BSTAR":"0.00052155000000","INCLINATION":"53.2181"},{"MEAN_MOTION":"15.08850213","MEAN_MOTION_DDOT":"0.0000000000000","PERIAPSIS":"538.935","CENTER_NAME":"EARTH","EPOCH":"2023-02-03T02:54:41.619456","GP_ID":"224314704","SITE":"AFETR","MEAN_ELEMENT_THEORY":"SGP4","COUNTRY_CODE":"US","REV_AT_EPOCH":"2215","ARG_OF_PERICENTER":"87.1580","LAUNCH_DATE":"2022-09-19","OBJECT_ID":"2022-114M","OBJECT_TYPE":"PAYLOAD","INCLINATION":"53.2187","BSTAR":"0.00007924400000","ECCENTRICITY":"0.00011260","NORAD_CAT_ID":"53829","TIME_SYSTEM":"UTC","DECAY_DATE":null,"CLASSIFICATION_TYPE":"U","MEAN_ANOMALY":"272.9541","ELEMENT_SET_NO":"999","FILE":"3770323","TLE_LINE2":"2 53829  53.2187 339.4577 0001126  87.1580 272.9541 15.08850213 22155","SEMIMAJOR_AXIS":"6917.849","RCS_SIZE":"LARGE","MEAN_MOTION_DOT":"0.00000974","PERIOD":"95.437","RA_OF_ASC_NODE":"339.4577","EPHEMERIS_TYPE":"0","TLE_LINE1":"1 53829U 22114M   23034.12131504  .00000974  00000-0  79244-4 0  9996","REF_FRAME":"TEME","APOAPSIS":"540.493","OBJECT_NAME":"STARLINK-4759"},{"RA_OF_ASC_NODE":"336.0740","PERIOD":"95.438","APOAPSIS":"540.857","OBJECT_NAME":"STARLINK-4761","REF_FRAME":"TEME","TLE_LINE1":"1 53830U 22114N   23034.83154862  .00002663  00000-0  18534-3 0  9999","EPHEMERIS_TYPE":"0","MEAN_ANOMALY":"267.4786","CLASSIFICATION_TYPE":"U","DECAY_DATE":null,"MEAN_MOTION_DOT":"0.00002663","RCS_SIZE":"LARGE","SEMIMAJOR_AXIS":"6917.882","TLE_LINE2":"2 53830  53.2188 336.0740 0001604  92.6390 267.4786 15.08839368 22264","FILE":"3770748","ELEMENT_SET_NO":"999","BSTAR":"0.00018534000000","INCLINATION":"53.2188","OBJECT_TYPE":"PAYLOAD","OBJECT_ID":"2022-114N","ARG_OF_PERICENTER":"92.6390","LAUNCH_DATE":"2022-09-19","REV_AT_EPOCH":"2226","TIME_SYSTEM":"UTC","NORAD_CAT_ID":"53830","ECCENTRICITY":"0.00016040","CENTER_NAME":"EARTH","PERIAPSIS":"538.638","MEAN_MOTION_DDOT":"0.0000000000000","MEAN_MOTION":"15.08839368","COUNTRY_CODE":"US","GP_ID":"224349959","SITE":"AFETR","MEAN_ELEMENT_THEORY":"SGP4","EPOCH":"2023-02-03T19:57:25.800768"},{"RCS_SIZE":"LARGE","MEAN_MOTION_DOT":"0.00015580","TLE_LINE2":"2 53831  53.2183 338.8378 0001217 107.6367 252.4758 15.08864496 22171","SEMIMAJOR_AXIS":"6917.806","ELEMENT_SET_NO":"999","FILE":"3770323","MEAN_ANOMALY":"252.4758","CLASSIFICATION_TYPE":"U","DECAY_DATE":null,"OBJECT_NAME":"STARLINK-4649","APOAPSIS":"540.512","REF_FRAME":"TEME","EPHEMERIS_TYPE":"0","TLE_LINE1":"1 53831U 22114P   23034.25011772  .00015580  00000-0  99416-3 0  9998","RA_OF_ASC_NODE":"338.8378","PERIOD":"95.436","COUNTRY_CODE":"US","EPOCH":"2023-02-03T06:00:10.171008","SITE":"AFETR","GP_ID":"224315206","MEAN_ELEMENT_THEORY":"SGP4","PERIAPSIS":"538.829","CENTER_NAME":"EARTH","MEAN_MOTION_DDOT":"0.0000000000000","MEAN_MOTION":"15.08864496","TIME_SYSTEM":"UTC","NORAD_CAT_ID":"53831","ECCENTRICITY":"0.00012170","INCLINATION":"53.2183","BSTAR":"0.00099416000000","OBJECT_TYPE":"PAYLOAD","OBJECT_ID":"2022-114P","ARG_OF_PERICENTER":"107.6367","LAUNCH_DATE":"2022-09-19","REV_AT_EPOCH":"2217"},{"BSTAR":"0.00027916000000","INCLINATION":"53.2189","OBJECT_TYPE":"PAYLOAD","OBJECT_ID":"2022-114Q","ARG_OF_PERICENTER":"79.0011","LAUNCH_DATE":"2022-09-19","REV_AT_EPOCH":"2226","TIME_SYSTEM":"UTC","NORAD_CAT_ID":"53832","ECCENTRICITY":"0.00012790","CENTER_NAME":"EARTH","PERIAPSIS":"538.839","MEAN_MOTION_DDOT":"0.0000000000000","MEAN_MOTION":"15.08847188","COUNTRY_CODE":"US","GP_ID":"224350459","SITE":"AFETR","MEAN_ELEMENT_THEORY":"SGP4","EPOCH":"2023-02-03T19:46:48.534240","RA_OF_ASC_NODE":"336.0293","PERIOD":"95.437","APOAPSIS":"540.608","OBJECT_NAME":"STARLINK-4747","REF_FRAME":"TEME","TLE_LINE1":"1 53832U 22114Q   23034.82417285  .00004159  00000-0  27916-3 0  9997","EPHEMERIS_TYPE":"0","MEAN_ANOMALY":"281.1125","CLASSIFICATION_TYPE":"U","DECAY_DATE":null,"MEAN_MOTION_DOT":"0.00004159","RCS_SIZE":"LARGE","SEMIMAJOR_AXIS":"6917.858","TLE_LINE2":"2 53832  53.2189 336.0293 0001279  79.0011 281.1125 15.08847188 22266","FILE":"3770748","ELEMENT_SET_NO":"999"},{"PERIAPSIS":"538.869","CENTER_NAME":"EARTH","MEAN_MOTION":"15.08864842","MEAN_MOTION_DDOT":"0.0000000000000","COUNTRY_CODE":"US","EPOCH":"2023-02-03T05:44:15.096768","GP_ID":"224314205","MEAN_ELEMENT_THEORY":"SGP4","SITE":"AFETR","OBJECT_ID":"2022-114R","OBJECT_TYPE":"PAYLOAD","INCLINATION":"53.2178","BSTAR":"0.00104900000000","REV_AT_EPOCH":"2217","ARG_OF_PERICENTER":"84.0264","LAUNCH_DATE":"2022-09-19","NORAD_CAT_ID":"53833","TIME_SYSTEM":"UTC","ECCENTRICITY":"0.00011570","CLASSIFICATION_TYPE":"U","MEAN_ANOMALY":"276.0860","DECAY_DATE":null,"TLE_LINE2":"2 53833  53.2178 338.7739 0001157  84.0264 276.0860 15.08864842 22175","SEMIMAJOR_AXIS":"6917.804","RCS_SIZE":"LARGE","MEAN_MOTION_DOT":"0.00016458","ELEMENT_SET_NO":"999","FILE":"3770323","RA_OF_ASC_NODE":"338.7739","PERIOD":"95.436","APOAPSIS":"540.470","OBJECT_NAME":"STARLINK-4771","EPHEMERIS_TYPE":"0","TLE_LINE1":"1 53833U 22114R   23034.23906362  .00016458  00000-0  10490-2 0  9995","REF_FRAME":"TEME"},{"ARG_OF_PERICENTER":"96.6147","LAUNCH_DATE":"2022-09-19","REV_AT_EPOCH":"2226","INCLINATION":"53.2174","BSTAR":"0.00017579000000","OBJECT_ID":"2022-114S","OBJECT_TYPE":"PAYLOAD","ECCENTRICITY":"0.00013730","TIME_SYSTEM":"UTC","NORAD_CAT_ID":"53834","MEAN_MOTION_DDOT":"0.0000000000000","MEAN_MOTION":"15.08842060","PERIAPSIS":"538.789","CENTER_NAME":"EARTH","EPOCH":"2023-02-03T19:36:11.855232","GP_ID":"224349459","MEAN_ELEMENT_THEORY":"SGP4","SITE":"AFETR","COUNTRY_CODE":"US","PERIOD":"95.437","RA_OF_ASC_NODE":"335.9856","REF_FRAME":"TEME","EPHEMERIS_TYPE":"0","TLE_LINE1":"1 53834U 22114S   23034.81680388  .00002511  00000-0  17579-3 0  9998","OBJECT_NAME":"STARLINK-4737","APOAPSIS":"540.689","DECAY_DATE":null,"MEAN_ANOMALY":"263.5001","CLASSIFICATION_TYPE":"U","ELEMENT_SET_NO":"999","FILE":"3770748","RCS_SIZE":"LARGE","MEAN_MOTION_DOT":"0.00002511","TLE_LINE2":"2 53834  53.2174 335.9856 0001373  96.6147 263.5001 15.08842060 22266","SEMIMAJOR_AXIS":"6917.874"},{"REF_FRAME":"TEME","EPHEMERIS_TYPE":"0","TLE_LINE1":"1 53835U 22114T   23034.82785929  .00019133  00000-0  12165-2 0  9990","APOAPSIS":"540.750","OBJECT_NAME":"STARLINK-4783","PERIOD":"95.437","RA_OF_ASC_NODE":"336.0469","ELEMENT_SET_NO":"999","FILE":"3770748","RCS_SIZE":"LARGE","MEAN_MOTION_DOT":"0.00019133","TLE_LINE2":"2 53835  53.2181 336.0469 0001516  87.6016 272.5149 15.08854574 22267","SEMIMAJOR_AXIS":"6917.836","DECAY_DATE":null,"MEAN_ANOMALY":"272.5149","CLASSIFICATION_TYPE":"U","ECCENTRICITY":"0.00015160","TIME_SYSTEM":"UTC","NORAD_CAT_ID":"53835","LAUNCH_DATE":"2022-09-19","ARG_OF_PERICENTER":"87.6016","REV_AT_EPOCH":"2226","INCLINATION":"53.2181","BSTAR":"0.00121650000000","OBJECT_ID":"2022-114T","OBJECT_TYPE":"PAYLOAD","EPOCH":"2023-02-03T19:52:07.042656","SITE":"AFETR","GP_ID":"224350709","MEAN_ELEMENT_THEORY":"SGP4","COUNTRY_CODE":"US","MEAN_MOTION_DDOT":"0.0000000000000","MEAN_MOTION":"15.08854574","PERIAPSIS":"538.652","CENTER_NAME":"EARTH"}];
